{"fetched_at":"2026-07-07T18:29:46.995Z","source":"https://celestrak.org/NORAD/elements/gp.php?NAME=SENTINEL&FORMAT=JSON","constellation":"sentinel-5p","records":[{"OBJECT_NAME":"SENTINEL-5P","OBJECT_ID":"2017-064A","EPOCH":"2026-07-07T06:58:07.807296","CLASSIFICATION_TYPE":"U","MEAN_MOTION":14.19522407,"ECCENTRICITY":0.0001108,"INCLINATION":98.7927,"RA_OF_ASC_NODE":130.279,"ARG_OF_PERICENTER":92.53,"MEAN_ANOMALY":267.6003,"EPHEMERIS_TYPE":0,"NORAD_CAT_ID":42969,"ELEMENT_SET_NO":999,"REV_AT_EPOCH":45241,"BSTAR":0.000040959,"MEAN_MOTION_DOT":4.2e-7,"MEAN_MOTION_DDOT":0}]}
